[{"OBJECT_NAME":"STARLINK-35741","OBJECT_ID":"2025-247H","EPOCH":"2026-03-09T15:44:14.627040","MEAN_MOTION":15.30190727,"ECCENTRICITY":0.00010933,"INCLINATION":53.1606,"RA_OF_ASC_NODE":191.2364,"ARG_OF_PERICENTER":82.5392,"MEAN_ANOMALY":277.5733,"EPHEMERIS_TYPE":0,"CLASSIFICATION_TYPE":"U","NORAD_CAT_ID":66272,"ELEMENT_SET_NO":999,"REV_AT_EPOCH":2108,"BSTAR":0.0011470433,"MEAN_MOTION_DOT":0.00033758,"MEAN_MOTION_DDOT":0},{"OBJECT_NAME":"CZ-4B DEB","OBJECT_ID":"2010-051E","EPOCH":"2026-03-08T22:01:50.125728","MEAN_MOTION":15.23766972,"ECCENTRICITY":0.00561086,"INCLINATION":97.769,"RA_OF_ASC_NODE":240.5013,"ARG_OF_PERICENTER":301.1291,"MEAN_ANOMALY":58.4449,"EPHEMERIS_TYPE":0,"CLASSIFICATION_TYPE":"U","NORAD_CAT_ID":38184,"ELEMENT_SET_NO":999,"REV_AT_EPOCH":82066,"BSTAR":0.0024566319,"MEAN_MOTION_DOT":0.00062123,"MEAN_MOTION_DDOT":0}]
